QIANFAN-17              
1 60395U 24140S   25351.32587750  .00000071  00000+0  90845-4 0  9994
2 60395  88.9775 298.9601 0014180 185.7105 174.3887 13.50977735 68756
QIANFAN-18              
1 60396U 24140T   25351.30529683  .00000073  00000+0  94194-4 0  9997
2 60396  88.9768 298.4954 0014081 167.5846 192.5655 13.50977766 68147
QIANFAN-19              
1 61552U 24185A   25351.32513906  .00000451  00000+0  22886-3 0  9992
2 61552  88.9822  77.4173 0004864 295.0877  64.9804 14.14300623 70313
QIANFAN-20              
1 61553U 24185B   25351.30439525  .00000455  00000+0  25543-3 0  9992
2 61553  88.9821  77.7482 0004782 348.0586  12.0484 14.08849299 70132
QIANFAN-21              
1 61554U 24185C   25351.32255867  .00000561  00000+0  24463-3 0  9998
2 61554  88.9737  76.4442 0010025   0.2077 359.9117 14.22614193 70629
QIANFAN-22              
1 61555U 24185D   25351.26484188  .00000175  00000+0  14040-3 0  9993
2 61555  88.9805  78.7518 0005847   0.4244 359.6931 13.86304717 69568
QIANFAN-23              
1 61556U 24185E   25351.29407515  .00000418  00000+0  20371-3 0  9990
2 61556  88.9813  77.2285 0005763 310.2375  49.8308 14.16297011 70398
QIANFAN-24              
1 61557U 24185F   25351.32136541  .00000563  00000+0  24000-3 0  9997
2 61557  88.9795  76.6228 0007299 284.8191  75.2193 14.23816549 70673
